{
  "type": "FeatureCollection",
  "features": [
    {
      "type": "Feature",
      "properties": {
        "norad_id": 15362,
        "name": "NOVA 3",
        "group": "nnss",
        "lat": -26.089478598723783,
        "lon": -99.4132394627601,
        "alt_km": 1182.1006788355453,
        "timestamp": "2025-12-22T05:49:03.767981+00:00",
        "meta_object_name": "NOVA 3",
        "meta_object_id": "1984-110A",
        "meta_epoch": "2025-12-21T18:29:46.288032",
        "meta_mean_motion": 13.23045627,
        "meta_eccentricity": 0.0029975,
        "meta_inclination": 90.122,
        "meta_ra_of_asc_node": 80.641,
        "meta_arg_of_pericenter": 305.9628,
        "meta_mean_anomaly": 174.8273,
        "meta_ephemeris_type": 0,
        "meta_classification_type": "U",
        "meta_norad_cat_id": 15362,
        "meta_element_set_no": 999,
        "meta_rev_at_epoch": 98818,
        "meta_bstar": 0.00018712,
        "meta_mean_motion_dot": 8.7e-07,
        "meta_mean_motion_ddot": 0,
        "tle_line1": "1 15362U 84110A   25355.77067463  .00000087  00000+0  18712-3 0  9997",
        "tle_line2": "2 15362  90.1220  80.6410 0029975 305.9628 174.8273 13.23045627988186"
      },
      "geometry": {
        "type": "Point",
        "coordinates": [
          -99.4132394627601,
          -26.089478598723783
        ]
      }
    },
    {
      "type": "Feature",
      "properties": {
        "norad_id": 15935,
        "name": "OSCAR 30",
        "group": "nnss",
        "lat": 10.860487370403675,
        "lon": 99.97071895060729,
        "alt_km": 1036.6929556285459,
        "timestamp": "2025-12-22T05:49:03.767992+00:00",
        "meta_object_name": "OSCAR 30",
        "meta_object_id": "1985-066A",
        "meta_epoch": "2025-12-21T17:45:15.162048",
        "meta_mean_motion": 13.36079647,
        "meta_eccentricity": 0.0169107,
        "meta_inclination": 90.1655,
        "meta_ra_of_asc_node": 99.9943,
        "meta_arg_of_pericenter": 58.7725,
        "meta_mean_anomaly": 57.3386,
        "meta_ephemeris_type": 0,
        "meta_classification_type": "U",
        "meta_norad_cat_id": 15935,
        "meta_element_set_no": 999,
        "meta_rev_at_epoch": 96573,
        "meta_bstar": 0.00015426,
        "meta_mean_motion_dot": 9.6e-07,
        "meta_mean_motion_ddot": 0,
        "tle_line1": "1 15935U 85066A   25355.73975882  .00000096  00000+0  15426-3 0  9992",
        "tle_line2": "2 15935  90.1655  99.9943 0169107  58.7725  57.3386 13.36079647965730"
      },
      "geometry": {
        "type": "Point",
        "coordinates": [
          99.97071895060729,
          10.860487370403675
        ]
      }
    },
    {
      "type": "Feature",
      "properties": {
        "norad_id": 15936,
        "name": "OSCAR 24",
        "group": "nnss",
        "lat": 83.46636860933445,
        "lon": 90.90860838104174,
        "alt_km": 996.5404275118244,
        "timestamp": "2025-12-22T05:49:03.768002+00:00",
        "meta_object_name": "OSCAR 24",
        "meta_object_id": "1985-066B",
        "meta_epoch": "2025-12-21T19:11:23.331840",
        "meta_mean_motion": 13.35936983,
        "meta_eccentricity": 0.0170232,
        "meta_inclination": 90.1791,
        "meta_ra_of_asc_node": 92.4657,
        "meta_arg_of_pericenter": 65.0417,
        "meta_mean_anomaly": 49.3088,
        "meta_ephemeris_type": 0,
        "meta_classification_type": "U",
        "meta_norad_cat_id": 15936,
        "meta_element_set_no": 999,
        "meta_rev_at_epoch": 96764,
        "meta_bstar": 0.00013931,
        "meta_mean_motion_dot": 8.7e-07,
        "meta_mean_motion_ddot": 0,
        "tle_line1": "1 15936U 85066B   25355.79957560  .00000087  00000+0  13931-3 0  9991",
        "tle_line2": "2 15936  90.1791  92.4657 0170232  65.0417  49.3088 13.35936983967648"
      },
      "geometry": {
        "type": "Point",
        "coordinates": [
          90.90860838104174,
          83.46636860933445
        ]
      }
    },
    {
      "type": "Feature",
      "properties": {
        "norad_id": 17070,
        "name": "POLAR BEAR",
        "group": "nnss",
        "lat": -2.5608113120602143,
        "lon": 3.410250776632788,
        "alt_km": 984.2916340814845,
        "timestamp": "2025-12-22T05:49:03.768013+00:00",
        "meta_object_name": "POLAR BEAR",
        "meta_object_id": "1986-088A",
        "meta_epoch": "2025-12-21T18:30:42.261408",
        "meta_mean_motion": 13.752526,
        "meta_eccentricity": 0.0041288,
        "meta_inclination": 89.6171,
        "meta_ra_of_asc_node": 183.4121,
        "meta_arg_of_pericenter": 93.2514,
        "meta_mean_anomaly": 277.8554,
        "meta_ephemeris_type": 0,
        "meta_classification_type": "U",
        "meta_norad_cat_id": 17070,
        "meta_element_set_no": 999,
        "meta_rev_at_epoch": 96103,
        "meta_bstar": 8.9705e-05,
        "meta_mean_motion_dot": 9.8e-07,
        "meta_mean_motion_ddot": 0,
        "tle_line1": "1 17070U 86088A   25355.77132247  .00000098  00000+0  89705-4 0  9997",
        "tle_line2": "2 17070  89.6171 183.4121 0041288  93.2514 277.8554 13.75252600961034"
      },
      "geometry": {
        "type": "Point",
        "coordinates": [
          3.410250776632788,
          -2.5608113120602143
        ]
      }
    },
    {
      "type": "Feature",
      "properties": {
        "norad_id": 18361,
        "name": "OSCAR 27",
        "group": "nnss",
        "lat": 58.28271697110198,
        "lon": -99.76692440485735,
        "alt_km": 1064.3965206687226,
        "timestamp": "2025-12-22T05:49:03.768038+00:00",
        "meta_object_name": "OSCAR 27",
        "meta_object_id": "1987-080A",
        "meta_epoch": "2025-12-21T16:42:30.284640",
        "meta_mean_motion": 13.44908421,
        "meta_eccentricity": 0.0103653,
        "meta_inclination": 90.3739,
        "meta_ra_of_asc_node": 79.6073,
        "meta_arg_of_pericenter": 197.9795,
        "meta_mean_anomaly": 161.7676,
        "meta_ephemeris_type": 0,
        "meta_classification_type": "U",
        "meta_norad_cat_id": 18361,
        "meta_element_set_no": 999,
        "meta_rev_at_epoch": 87677,
        "meta_bstar": 0.00016317,
        "meta_mean_motion_dot": 1.07e-06,
        "meta_mean_motion_ddot": 0,
        "tle_line1": "1 18361U 87080A   25355.69618385  .00000107  00000+0  16317-3 0  9996",
        "tle_line2": "2 18361  90.3739  79.6073 0103653 197.9795 161.7676 13.44908421876774"
      },
      "geometry": {
        "type": "Point",
        "coordinates": [
          -99.76692440485735,
          58.28271697110198
        ]
      }
    },
    {
      "type": "Feature",
      "properties": {
        "norad_id": 18362,
        "name": "OSCAR 29",
        "group": "nnss",
        "lat": 61.784938265284666,
        "lon": -99.21329553803972,
        "alt_km": 1101.5696115037026,
        "timestamp": "2025-12-22T05:49:03.768052+00:00",
        "meta_object_name": "OSCAR 29",
        "meta_object_id": "1987-080B",
        "meta_epoch": "2025-12-21T17:29:28.346784",
        "meta_mean_motion": 13.44450025,
        "meta_eccentricity": 0.0104486,
        "meta_inclination": 90.375,
        "meta_ra_of_asc_node": 80.0681,
        "meta_arg_of_pericenter": 221.1127,
        "meta_mean_anomaly": 293.8404,
        "meta_ephemeris_type": 0,
        "meta_classification_type": "U",
        "meta_norad_cat_id": 18362,
        "meta_element_set_no": 999,
        "meta_rev_at_epoch": 87630,
        "meta_bstar": 0.00016508,
        "meta_mean_motion_dot": 1.07e-06,
        "meta_mean_motion_ddot": 0,
        "tle_line1": "1 18362U 87080B   25355.72880031  .00000107  00000+0  16508-3 0  9992",
        "tle_line2": "2 18362  90.3750  80.0681 0104486 221.1127 293.8404 13.44450025876300"
      },
      "geometry": {
        "type": "Point",
        "coordinates": [
          -99.21329553803972,
          61.784938265284666
        ]
      }
    },
    {
      "type": "Feature",
      "properties": {
        "norad_id": 19070,
        "name": "OSCAR 23",
        "group": "nnss",
        "lat": 43.35496333152431,
        "lon": 16.384347757386887,
        "alt_km": 1198.390424650719,
        "timestamp": "2025-12-22T05:49:03.768063+00:00",
        "meta_object_name": "OSCAR 23",
        "meta_object_id": "1988-033A",
        "meta_epoch": "2025-12-21T12:06:05.436576",
        "meta_mean_motion": 13.27788556,
        "meta_eccentricity": 0.01902426,
        "meta_inclination": 90.3203,
        "meta_ra_of_asc_node": 16.664,
        "meta_arg_of_pericenter": 155.5953,
        "meta_mean_anomaly": 323.4425,
        "meta_ephemeris_type": 0,
        "meta_classification_type": "U",
        "meta_norad_cat_id": 19070,
        "meta_element_set_no": 999,
        "meta_rev_at_epoch": 82369,
        "meta_bstar": 0.0001193184,
        "meta_mean_motion_dot": 6.9e-07,
        "meta_mean_motion_ddot": 0,
        "tle_line1": "1 19070U 88033A   25355.50422959  .00000069  00000+0  11932-3 0  9998",
        "tle_line2": "2 19070  90.3203  16.6640 0190242 155.5953 323.4425 13.27788556823693"
      },
      "geometry": {
        "type": "Point",
        "coordinates": [
          16.384347757386887,
          43.35496333152431
        ]
      }
    }
  ]
}